{
    "satellites": [
        {
            "name": "starlink373",
            "title": "Starlink-373 (G10-58)",
            "tle": [
                "1 68568C 26070AC  26100.94215278 -.01580500  00000+0 -42440-2 0  1005",
                "2 68568  53.1578 223.1591 0000954  67.3435 121.9573 15.94476542    19"
            ],
            "stdMag": 5,
            "noradId": "68568",
            "intDes": null,
            "tleUrl": "http://celestrak.org/NORAD/elements/supplemental/sup-gp.php?FILE=starlink&FORMAT=tle",
            "launchDate": "2026-04-02T11:55:10.000Z",
            "active": true,
            "batch": [
                {
                    "noradId": "68568",
                    "tle": [
                        "1 68568C 26070AC  26100.94215278 -.01580500  00000+0 -42440-2 0  1005",
                        "2 68568  53.1578 223.1591 0000954  67.3435 121.9573 15.94476542    19"
                    ]
                },
                {
                    "noradId": "68570",
                    "tle": [
                        "1 68570C 26070AE  26100.88520833 -.01601000  00000+0 -42494-2 0  1005",
                        "2 68570  53.1581 223.4384 0001000  70.5587 157.6184 15.94706204    11"
                    ]
                },
                {
                    "noradId": "68569",
                    "tle": [
                        "1 68569C 26070AD  26100.93590278 -.01376100  00000+0 -37047-2 0  1007",
                        "2 68569  53.1579 223.2048 0001143  62.4372  84.3375 15.94324314    17"
                    ]
                },
                {
                    "noradId": "68567",
                    "tle": [
                        "1 68567C 26070AB  26100.89840278 -.01090300  00000+0 -21960-2 0  1000",
                        "2 68567  53.1579 223.2529 0000661  58.1550 302.3593 15.99483529    17"
                    ]
                },
                {
                    "noradId": "68566",
                    "tle": [
                        "1 68566C 26070AA  26100.89423611 -.01093000  00000+0 -22149-2 0  1007",
                        "2 68566  53.1579 223.2802 0000645  56.6039 277.0444 15.99375899    10"
                    ]
                },
                {
                    "noradId": "68565",
                    "tle": [
                        "1 68565C 26070Z   26100.92895833 -.01108800  00000+0 -22679-2 0  1002",
                        "2 68565  53.1578 223.1051 0000899  62.5960 109.2907 15.99219607    17"
                    ]
                },
                {
                    "noradId": "68564",
                    "tle": [
                        "1 68564C 26070Y   26100.91159722 -.01110500  00000+0 -22801-2 0  1007",
                        "2 68564  53.1582 223.2000 0000819  64.6825   4.7192 15.99151185    12"
                    ]
                },
                {
                    "noradId": "68562",
                    "tle": [
                        "1 68562C 26070W   26100.93729167 -.01094500  00000+0 -22691-2 0  1001",
                        "2 68562  53.1582 223.0726 0000804  61.0572 153.7499 15.98971495    15"
                    ]
                },
                {
                    "noradId": "68563",
                    "tle": [
                        "1 68563C 26070X   26100.95256944 -.01107500  00000+0 -23142-2 0  1009",
                        "2 68563  53.1580 222.9991 0000714  60.0794 240.2072 15.98838394    10"
                    ]
                },
                {
                    "noradId": "68561",
                    "tle": [
                        "1 68561C 26070V   26100.92479167 -.01114400  00000+0 -23343-2 0  1008",
                        "2 68561  53.1581 223.1472 0000903  64.2137  73.7428 15.98798655    12"
                    ]
                },
                {
                    "noradId": "68560",
                    "tle": [
                        "1 68560C 26070U   26100.93798611 -.01085500  00000+0 -22903-2 0  1005",
                        "2 68560  53.1580 223.0839 0000761  69.3973 142.3102 15.98654099    17"
                    ]
                },
                {
                    "noradId": "68559",
                    "tle": [
                        "1 68559C 26070T   26100.95118056 -.01118800  00000+0 -23782-2 0  1000",
                        "2 68559  53.1582 223.0208 0000728  61.6819 223.6049 15.98537147    11"
                    ]
                },
                {
                    "noradId": "68558",
                    "tle": [
                        "1 68558C 26070S   26100.94631944 -.01096000  00000+0 -23433-2 0  1004",
                        "2 68558  53.1579 223.0514 0000815  61.1926 193.3413 15.98422203    11"
                    ]
                },
                {
                    "noradId": "68557",
                    "tle": [
                        "1 68557C 26070R   26100.94909722 -.01112000  00000+0 -24064-2 0  1005",
                        "2 68557  53.1582 223.0482 0000815  61.4926 204.0661 15.98214062    18"
                    ]
                },
                {
                    "noradId": "68556",
                    "tle": [
                        "1 68556C 26070Q   26100.94562500 -.01123500  00000+0 -24261-2 0  1009",
                        "2 68556  53.1583 223.0599 0000665  28.0966 220.0740 15.98258312    15"
                    ]
                },
                {
                    "noradId": "68555",
                    "tle": [
                        "1 68555C 26070P   26100.96159722 -.01105700  00000+0 -24396-2 0  1009",
                        "2 68555  53.1581 222.9996 0000732  60.0751 269.5712 15.97860927    11"
                    ]
                },
                {
                    "noradId": "68554",
                    "tle": [
                        "1 68554C 26070N   26100.94562500 -.01099500  00000+0 -23939-2 0  1000",
                        "2 68554  53.1578 223.0716 0000908  59.8438 182.7855 15.98097389    10"
                    ]
                },
                {
                    "noradId": "68553",
                    "tle": [
                        "1 68553C 26070M   26100.91645833 -.01095200  00000+0 -23890-2 0  1006",
                        "2 68553  53.1577 223.2261 0000906  60.3691  12.1659 15.98062678    12"
                    ]
                },
                {
                    "noradId": "68552",
                    "tle": [
                        "1 68552C 26070L   26100.91437500 -.01091700  00000+0 -24372-2 0  1002",
                        "2 68552  53.1578 223.2581 0000817  60.3829 350.0567 15.97641715    17"
                    ]
                },
                {
                    "noradId": "68551",
                    "tle": [
                        "1 68551C 26070K   26100.94284722 -.01087000  00000+0 -24088-2 0  1002",
                        "2 68551  53.1580 223.1021 0000832  60.6658 158.1105 15.97773831    17"
                    ]
                },
                {
                    "noradId": "68550",
                    "tle": [
                        "1 68550C 26070J   26100.93312500 -.01095400  00000+0 -24374-2 0  1007",
                        "2 68550  53.1580 223.1566 0000863  62.4810  98.1905 15.97703440    14"
                    ]
                },
                {
                    "noradId": "68549",
                    "tle": [
                        "1 68549C 26070H   26100.90812500 -.01089300  00000+0 -24447-2 0  1000",
                        "2 68549  53.1581 223.2960 0000838  59.4637 312.2253 15.97545303    15"
                    ]
                },
                {
                    "noradId": "68547",
                    "tle": [
                        "1 68547C 26070F   26100.92618056 -.01093000  00000+0 -24724-2 0  1000",
                        "2 68547  53.1581 223.2081 0001058  54.2012  58.9177 15.97404287    16"
                    ]
                },
                {
                    "noradId": "68548",
                    "tle": [
                        "1 68548C 26070G   26100.94423611 -.01079200  00000+0 -24612-2 0  1006",
                        "2 68548  53.1579 223.1211 0000858  62.5436 151.7685 15.97249643    16"
                    ]
                },
                {
                    "noradId": "68545",
                    "tle": [
                        "1 68545C 26070D   26100.90534722 -.01080600  00000+0 -24935-2 0  1009",
                        "2 68545  53.1576 223.3357 0000801  58.7842 284.6983 15.97034890    12"
                    ]
                },
                {
                    "noradId": "68546",
                    "tle": [
                        "1 68546C 26070E   26100.91645833 -.01085700  00000+0 -24805-2 0  1009",
                        "2 68546  53.1582 223.2678 0000859  56.7669 355.6545 15.97219086    18"
                    ]
                },
                {
                    "noradId": "68544",
                    "tle": [
                        "1 68544C 26070C   26100.87965278 -.01053200  00000+0 -24095-2 0  1001",
                        "2 68544  53.1578 223.4628 0000868  58.9857 139.1441 15.97177630    19"
                    ]
                },
                {
                    "noradId": "68543",
                    "tle": [
                        "1 68543C 26070B   26100.94076389 -.01095400  00000+0 -25506-2 0  1000",
                        "2 68543  53.1580 223.1566 0000876  63.3542 122.2509 15.96878415    15"
                    ]
                },
                {
                    "noradId": "68542",
                    "tle": [
                        "1 68542C 26070A   26100.87687500 -.01064000  00000+0 -24717-2 0  1009",
                        "2 68542  53.1582 223.4897 0000911  61.4264 114.5993 15.96905426    10"
                    ]
                }
            ]
        }
    ],
    "config": {}
}